Company Name,City,State,Country,Postal Code
Account Name,,,US,
3000 HMBLT YARD OFC,,,US,
3D STORAGE,,,US,
3M - Staples,,,US,
3m Co,,,US,
3m Co,,,US,
736 EXPERIMENTAL DESIGN,,,US,
ABM BUILDING SOLUTIONS LLC,,,US,
ABM ELECTRICAL POWER SERV,,,US,
ABM Facility Service,,,US,
ABM/NBCU,,,US,
Accella Polyurethane Systems,,,US,
Accraply Inc,,,US,
Accurus Aerospace Athens Llc,,,US,
Ace Equipment Co Inc,,,US,
Ace Ethanol Llc,,,US,
ACE INDUSTRIES,,,US,
Ace Industries Inc,,,US,
Ace Industries Inc,,,US,
Acs Heating & Air Conditioning,,,US,
Action Enviromental,,,US,
Active Minerals,,,US,
Adams Poultry,,,US,
Adc-Advanced Digital Cable Inc,,,US,
ADMAN ELECTRIC @ BASF,,,US,
ADMAN ELECTRIC @ WACKER,,,US,
"ADT Form Repa L, A5 03",,,US,
Advance Industrial Refrig,,,US,
ADVANCED DISPOSAL,,,US,
ADVANCED DRAINAGE SYSTEM,,,US,
Advanced Drainage Systems,,,US,
Advanced Drainage Systems,,,US,
Advanced Drainage Systems Inc,,,US,
Advanced Technology Services,,,US,
Ag Tech Drainage,,,US,
Agropur,,,US,
Agy Holding Corp,,,US,
Air Liquide,,,US,
Airgas,,,US,
Airgas,,,US,
Airgas,,,US,
Airgas,,,US,
Airgas,,,US,
Airgas,,,US,
Airgas,,,US,
AIRGAS INC,,,US,
"Airgas Inc, Garments",,,US,
Airgas National Welders,,,US,
Airgas South Inc,,,US,
Airgas Soutn Atlanta Plant,,,US,
Airgas Specialty Products,,,US,
Alan Wagoner,,,US,
Alatrade Foods Llc,,,US,
ALBANY TECHNICAL COLLEGE,,,US,
A-Lert Construction,,,US,
Alkegen,,,US,
All American Poly,,,US,
All Flex Flexible Circuits Llc,,,US,
All Flex Solutions,,,US,
All Metals Trnsprtn-Logistics,,,US,
Allete Clean Energy,,,US,
Alliance Ground International,,,US,
"Alliance L, 03, A4",,,US,
Alliance Steel,,,US,
Alliance Steel Svc Co,,,US,
Allied Generators,,,US,
Allied Generators Inc,,,US,
Allied Paving Contractors Inc,,,US,
ALLIED WASTE SAFETY,,,US,
Allina Health Home Health,,,US,
Alloy Hardfacing & Engineering,,,US,
Aludyne,,,US,
ALUMA SYSTEMS INC,,,US,
AM Waste,,,US,
Amcor Packaging,,,US,
American Crystal Sugar Co,,,US,
American Crystal Sugar Co,,,US,
American Crystal Sugar Co,,,US,
American Proteins Inc,,,US,
American Tank Maintenance Llc,,,US,
American Welding & Gas,,,US,
AMERICAN WELDING & GAS,,,US,
American Welding & Gas Inc,,,US,
American Welding & Gas Inc,,,US,
American Welding & Gas Inc,,,US,
AMERICAN WELDING AND GAS,,,US,
American Woodmark Corp,,,US,
Americold,,,US,
AMERICOLD,,,US,
Americold,,,US,
Americold,,,US,
Americold,,,US,
Americold,,,US,
Americold - Skygate,,,US,
Americold - Southgate,,,US,
Americold - Tradewater,,,US,
Americold - Westgate,,,US,
Americold Gateway,,,US,
Americold Logistics,,,US,
Americold Logistics,,,US,
AMERICOLD LOGISTICS,,,US,
Americold Logistics Llc,,,US,
Americraft carton inc,,,US,
Amerimax Diversified Products,,,US,
Amerisource Bergen Dstrbtn,,,US,
Amerit Fleet,,,US,
AMITY TECHNOLOGY,,,US,
Ampacet Corp,,,US,
AMPI JIM FALLS-INTAKE,,,US,
Ampro Products Inc,,,US,
Anchor Block Co,,,US,
ANCHOR GLASS CONTAINER,,,US,
Anchor Glass Container,,,US,
Anchor Iron Co,,,US,
Anheuser-Busch Brewery,,,US,
ANNANDALE SENIOR HIGH SCHOOL,,,US,
Anthony International,,,US,
APAC-MIDSOUTH,,,US,
Apothecary Products Llc,,,US,
"Aqseptence Group, Inc. (Johnson Screens)",,,US,
Aqua Terra,,,US,
Archaea Energy,,,US,
Arclin Inc,,,US,
ARDENT MILLS,,,US,
Ari,,,US,
Arnold'S Of Glencoe Inc,,,US,
Arnolds Septic Tank Service,,,US,
ARNT CONSTRUCTION,,,US,
Artisan Ind Service Inc,,,US,
ARYZTA,,,US,
Asama Coldwater Manufacturing,,,US,
Asc Construction,,,US,
Ascend Elements,,,US,
Ascendum,,,US,
Ascendum,,,US,
Ascendum Machinery,,,US,
ASOS/DHL,,,US,
Aspen Equipment,,,US,
Aspen Research Corp,,,US,
Associated Milk Producers Inc,,,US,
ASSOCIATED MILK PRODUCERS INC,,,US,
Athens Utilities Board,,,US,
Atlanta Cheesecake Company,,,US,
Atlanta Marriott Marquis,,,US,
Atlas Copco Rental,,,US,
Atlas Copso Customer Ctr,,,US,
Atlas Roofing,,,US,
ATS SITE 476,,,US,
ATS-Advanced Tech Service,,,US,
ATS-ADVANCED TECH SERVICE,,,US,
Augusta Industrial Svc Inc,,,US,
Aurelius Manufacturing Co,,,US,
AUSTELL BOXBOARD,,,US,
AUSTELL BOXBOARD,,,US,
Aveka,,,US,
Avery Dennison Corp,,,US,
Avon Plastics,,,US,
AWG,,,US,
Axalta,,,US,
Axmen - Frenchtown,,,US,
Axmen - Plains,,,US,
Axmen - Polsonan,,,US,
Axmen - Victor,,,US,
AZZ WSI LLC,,,US,
B & B Oil Co,,,US,
Baldinger Baking Co,,,US,
BALDOR ELECTRIC COMPANY,,,US,
Balfour Lumber Co Inc,,,US,
Ball Aluminum Cup,,,US,
BARRON COUNTY HWY DEPT,,,US,
BARTON SAND & GRAVEL,,,US,
BASF,,,US,
BASF,,,US,
BASF CATALYSTS LLC,,,US,
Basf Construction Chemicals,,,US,
BASF Corporation,,,US,
BASF Corporation,,,US,
Basf Dispersions & Pigments,,,US,
Basf Federal Credit Union,,,US,
BASF-CHEMICAL CO,,,US,
Bass Pro Shops,,,US,
BATTLE LUMBER COMPANY INC,,,US,
Bauer Built Tire,,,US,
Bayer Crop Science,,,US,
Bayer Crop Science Us,,,US,
BBU,,,US,
Beam's Contracting,,,US,
Beasley Forest Products,,,US,
BEASLEY TIMBER SHOP,,,US,
BEAUFLOR USA,,,US,
Becker County Natrl Resources,,,US,
Befesa Zinc USA Inc.,,,US,
Bekeart Steel & Wire,,,US,
BEMIDJI IND SCHOOL DISTRICT 31,,,US,
Bernatello'S Foods,,,US,
Berry Global,,,US,
Best Maid Cookie Co,,,US,
Bid Group - Georgia Pacific Job Site,,,US,
Bimbo Bakeries,,,US,
Bimbo Bakeries Usa,,,US,
Bimbo Bakeries Usa,,,US,
Bimbo QSR,,,US,
BIO - NOMIC SERVICES,,,US,
Bix Produce Company,,,US,
BLOOMINGTON PUBLIC SCHOOL,,,US,
Blue Stone Carports & Garage,,,US,
Bluegrass Materials,,,US,
Bluegrass Materials,,,US,
Bo Metals,,,US,
Body Shop,,,US,
BONSAL,,,US,
BORTON VOLVO SERVICE DEPT,,,US,
Bowater Newsprint Calhoun Oper,,,US,
Brantley Gas,,,US,
Brantley Gas,,,US,
Break Thru Beverages,,,US,
Brenntag Mid-South,,,US,
Brenntag Mid-South,,,US,
Bridge Services-CMC,,,US,
Bridgestone Bandag,,,US,
Bridgestone Firestone - Radial Plant,,,US,
Briggs Equipment,,,US,
BRIGHT STAR ENERGY,,,US,
Brockman Storage Trailers,,,US,
Broekema Beltway Usa Inc,,,US,
Btd Manufacturing,,,US,
Btd Manufacturing,,,US,
Buhler Inc,,,US,
Buhler Yarns Inc,,,US,
Buice Body Shop*La,,,US,
Builders first source,,,US,
BULKMATIC TRANSPORT-070,,,US,
BURNETT DAIRY,,,US,
Burris Logistics,,,US,
Bus Doctor Of Atlanta,,,US,
Bway Corp,,,US,
BWAY CORPORATION (US CAN),,,US,
C & C Sanitation Svc,,,US,
C M C Recycling,,,US,
C N Docks-Two Harbors,,,US,
C REISS COAL,,,US,
C V S CORPORATION,,,US,
C W Matthews,,,US,
C W Matthews,,,US,
C W Matthews,,,US,
C&C Fabrication LLC,,,US,
C&D Technologies,,,US,
C.a. Murren and Sons Inc.,,,US,
C.W. MATTHEWS PLANT 59,,,US,
Cady Cheese,,,US,
CANADIAN PACIFIC RAILWAY,,,US,
CANADIAN PACIFIC RAILWAY,,,US,
Canadian Pacific Railway,,,US,
CANFOR,,,US,
Canfor Beadles Lumber Co,,,US,
Cannon Automotive,,,US,
Capital Safety Group Usa,,,US,
Capital Waste Services,,,US,
Capital Waste Services,,,US,
Capital Waste Services,,,US,
Carder & Evans Trucking,,,US,
Cardinal Cg Co,,,US,
Cardinal Cg Co,,,US,
Cardinal Fg Co,,,US,
Cardinal Glass,,,US,
Cardinal Ig Co,,,US,
Cargill Animal Nutrition,,,US,
Cargill Inc,,,US,
Cargill Inc,,,US,
Cargill Inc,,,US,
Cargill Inc,,,US,
Cargill Kitchen Solutions,,,US,
Cargill Texturizing Solutions,,,US,
Cargill US,,,US,
Carolina Tractor/Lift One,,,US,
Cartersville City Government,,,US,
Cartersville Country Club,,,US,
Cascades Tissue Group,,,US,
Case IH (Benson Plant),,,US,
Cass-Clay Creamery,,,US,
Casteel Heating & Cooling,,,US,
Caterpillar EPD Building,,,US,
Caterpillar Global Paving,,,US,
CBRE GWS LLC- AT&T,,,US,
CBRE Microsoft Data Center,,,US,
C-E MINERALS,,,US,
CEMEX,,,US,
Cemex,,,US,
Cemex,,,US,
Cemex,,,US,
Cemex,,,US,
Cemex,,,US,
Central Lakes Co-Op,,,US,
Ceradyne Inc,,,US,
CERROWIRE,,,US,
Certain Teed Corp,,,US,
Certain Teed Corp,,,US,
Certainteed,,,US,
CH2M HILL ALBANY GA,,,US,
CH2M-JACOBS,,,US,
Chalmers & Kubeck S,,,US,
Champion Charter Sales & Svc,,,US,
Chemtrade Logistics,,,US,
Chemtrade Logistics,,,US,
Cherokee County School Dist,,,US,
CHI Memorial Hospital Chattanooga,,,US,
CHI Memorial Hospital Hixson (FKA Memorial Hospital Hixson),,,US,
Chippewa County Highway Dept,,,US,
Chippewa Valley Energy,,,US,
Chippewa Valley Technical Clg,,,US,
CHIPPEWA VLY TECH CLG-EAU CLAI,,,US,
Chs Inc,,,US,
CINTAS CORP #037Q DEPOT,,,US,
Circle K Office,,,US,
CIRRUS,,,US,
CIRRUS,,,US,
Cirrus Aircraft,,,US,
Cirrus Design Corp,,,US,
City of Altoona,,,US,
CITY OF AMERICUS,,,US,
City of Atlanta - DPW - Fleet Services,,,US,
City Of Barnesville,,,US,
City of Chattanooga,,,US,
City of Chattanooga - Waste Water,,,US,
City Of College Park Power & Water,,,US,
CITY OF DAYTON PUBLIC WORKS,,,US,
CITY OF ELK RIVER- WASTE,,,US,
CITY OF FAIRBURN,,,US,
City Of Golden Valley,,,US,
CITY OF HINCKLEY,,,US,
City of Hogansville,,,US,
City of Jackson DPW,,,US,
CITY OF LAGRANGE,,,US,
CITY OF LAKE ELMO,,,US,
CITY OF LAWRENCEVILLE,,,US,
CITY OF LAWRENCEVILLE,,,US,
CITY OF MINNEAPOLIS,,,US,
City Of Minneapolis,,,US,
City of Monroe,,,US,
City Of Oakdale,,,US,
City of Oxford,,,US,
City of Plymouth,,,US,
CITY OF SANDERSVILLE,,,US,
CITY OF THOMASTON,,,US,
CITY OF UNION POINT,,,US,
CITY OF WASHINGTON,,,US,
City Of West Point,,,US,
"City of West, Point",,,US,
Cjb Industries,,,US,
Cjb Industries,,,US,
Clairemont Oaks,,,US,
Clariant Corp,,,US,
Clark Dietrich Building Systs,,,US,
Classic Signature Foods Inc,,,US,
Claxton Poultry Farms,,,US,
CLEAN HARBOR,,,US,
Clean Harbors,,,US,
CLEAN HARBORS,,,US,
Clean Harbors,,,US,
Clean Harbors,,,US,
CLEAN HARBORS,,,US,
Clean Harbors,,,US,
Clean Harbors,,,US,
Clean Harbors-65CG,,,US,
Clean Harbors-Main,,,US,
Cleveland Tree Co,,,US,
Clorox Co,,,US,
Clorox Company - Atlanta West,,,US,
Club Car,,,US,
Coastal Processing,,,US,
Coastal Truck Repair,,,US,
Cobb County Extension Svc,,,US,
Coleman Mechanical Svc Inc,,,US,
Collins Aerospace,,,US,
Collum'S Lumber Products Llc,,,US,
COLONIAL CHEMICAL,,,US,
Colquitt Regional Medical Ctr,,,US,
Colt Services,,,US,
Columbia Farms,,,US,
Columbia Farms,,,US,
Columbia Heights Public Works,,,US,
COLUMBUS TECHNICAL COLLEGE,,,US,
Comfort Systems Usa Inc,,,US,
Comfort Systems Usa Inc,,,US,
Commercial Truck & Van Eqpt,,,US,
Communicorp Inc,,,US,
COMPRESSED AIR PRODUCTS I,,,US,
Concrete Enterprises Inc,,,US,
Connexus Energy,,,US,
CONRAD YELVINGTON,,,US,
Consolidated Precision Prods,,,US,
Constellium Automotive,,,US,
Contech Engineered Solutions,,,US,
Cooper Industries,,,US,
Cooper Lighting Llc,,,US,
Cordele Intermodal Svc Inc,,,US,
Corval Group,,,US,
Covia,,,US,
Coweta County School District,,,US,
Cox Automotive,,,US,
CP RAIL,,,US,
Cremer Volunteer Pastilles,,,US,
CRENLO,,,US,
CRH-Ash Grove,,,US,
Crider Inc,,,US,
Crossroad Classics & Custums,,,US,
Crown Bakeries FNA Masada Bakery,,,US,
Crown Cork & Seal Co Inc,,,US,
Crown Lift Trucks,,,US,
Crown Underground LLC,,,US,
CRUSHER WORKS - GA,,,US,
CS MCCROSSAN,,,US,
Cs Truck & Trailer Repair,,,US,
CSM BAKERY SOLUTIONS,,,US,
Cumberland Plastic Systems,,,US,
CUMMINGS,,,US,
Cummins,,,US,
CUMMINS,,,US,
CUMMINS BUSINESS SERVICES NAD,,,US,
CUMMINS NPOWER,,,US,
Cummins Npower Llc,,,US,
Cummins Npowers Llc,,,US,
Cummins Power South Llc,,,US,
CUMMINS POWER SOUTH LLC,,,US,
Cummins Power South LLC,,,US,
Cummins Power South Llc,,,US,
Cummins Sales & Svc,,,US,
Cummins Sales & Svc,,,US,
Cummins Sales and Service,,,US,
CUMMINS-HIBBING,,,US,
Custom Building Products,,,US,
Custom Ecology Inc,,,US,
Custom Ecology Inc,,,US,
Custom Truck One Source,,,US,
CW Matthews,,,US,
Daikin Applied,,,US,
Daikin Applied America,,,US,
Daikin Applied North Faribault,,,US,
Daikin Applied-Applied Air,,,US,
Dairy Farmers Of America,,,US,
Dakota Growers Pasta Co,,,US,
Dakota Growers Pasta Co,,,US,
DAR PRO SOLUTIONS,,,US,
Darling Ingredients,,,US,
Dart,,,US,
Dave's Trading Po**La1005,,,US,
Davis Core & Pa,,,US,
Dayton Freight Lines Inc,,,US,
Dayton Mechanic Shop,,,US,
Dayton Superior Corp,,,US,
D-Check Developments Inc,,,US,
DCS,,,US,
De Zurik Inc,,,US,
Deaton Truck Svc,,,US,
Deats Excavating & Utilities,,,US,
Dee Inc,,,US,
Dekalb County Government,,,US,
Delavan Spray Technologies,,,US,
Delta Air Lines Inc,,,US,
DELTA AIRLINES DEPARTMENT,,,US,
Delta dept 386,,,US,
Denso FR Maintenance,,,US,
Detroit Diesel Remanufacturing,,,US,
DEUTZ - SHOEMOBILE,,,US,
DEUTZ XCHANGE,,,US,
Diamond Crystal Brands,,,US,
Dianne'S Fine Desserts,,,US,
DNR REGIONAL HEADQUARTERS,,,US,
Dobla Group Usa Llc,,,US,
Doehler North America Inc,,,US,
Dolco Packaging Co,,,US,
Donaldson Co,,,US,
Donaldson Co,,,US,
Donovan Construction,,,US,
Dougherty County Fleet Mntnc,,,US,
Dow Jones & Co,,,US,
"Dudley Sawmill LLC, Gilman",,,US,
Duininck Inc,,,US,
DUPONT,,,US,
DUPONT,,,US,
DURA LINE,,,US,
Duracell,,,US,
Duracell,,,US,
Duracell,,,US,
Duracell Inc,,,US,
Dura-Line,,,US,
Dye Systems Inc,,,US,
E R Snell Contractor,,,US,
E R Snell Contractor Inc,,,US,
E Z GO,,,US,
E.R. SNELL,,,US,
E.R. SNELL-SNELLVILLE,,,US,
EAGLE FLOW SOLUTIONS,,,US,
Eagle Rock Distributing Co,,,US,
Eaton Corp,,,US,
Eaton Corp,,,US,
Eaton Corp,,,US,
Eaton Corp Hydraulics,,,US,
Eau Claire Co-Op,,,US,
Ebert Construction,,,US,
Eccomelt,,,US,
Ed Miniat,,,US,
Edelmann & Assoc Inc,,,US,
EDF renewables,,,US,
EDMOND MFG,,,US,
EGRMC,,,US,
EI DuPont de Nemours,,,US,
Electrical Builders ind,,,US,
Elite Foam,,,US,
Ellingson Co,,,US,
Elmo Carter Construction,,,US,
ELRINGKLINGER,,,US,
Emerald Transformer Ppm Llc,,,US,
EMERGENCY APPARATUS,,,US,
EMERGENCY APPARATUS,,,US,
Emergency Apparatus Mntnc Inc,,,US,
Emerson,,,US,
Empire Bucket Inc,,,US,
ENERGY DEV,,,US,
ENERGY DEVELOPMENT,,,US,
Energy-Environ Research Ctr,,,US,
ENERSYS INC,,,US,
Engineered Parts Sourcing Inc,,,US,
Engineered Systems,,,US,
Engineered Systems Inc,,,US,
Engineered Systems Inc,,,US,
Enterprise/Dixie Pipeline,,,US,
Environmental Products,,,US,
ENVIROSERVE,,,US,
Eps Of Vermont,,,US,
EPSCO,,,US,
Equipment Share,,,US,
Equipment Transport,,,US,
EquipmentShare,,,US,
ER SNELL,,,US,
Er Snell Contr Inc-Augusta,,,US,
Erdrich Usa Inc,,,US,
Ergon Asphalt Partners,,,US,
Ergon Terminaling Inc,,,US,
Eriks,,,US,
ESG,,,US,
ESG OPERATIONS INC,,,US,
ESG- Quitman Main,,,US,
"ESG, INC.",,,US,
Essentia Protein Solutions,,,US,
EUCLID CHEMICAL COMPANY,,,US,
Evans Disposal Svc,,,US,
Eveleth City Garage,,,US,
EVERGREEN TANK SOLUTIONS,,,US,
EVONIK INDUSTRIES,,,US,
Evoqua Water Technologies,,,US,
EVOQUA WATER TECHNOLOGIES LLC,,,US,
FAB CON,,,US,
FABCON INC,,,US,
Fairburn Ready Mix,,,US,
Fairburn Ready Mix,,,US,
Fairburn Ready Mix Concrete,,,US,
Fairburn Ready Mix Griffin Plant,,,US,
Fairburn Ready Mix Inc,,,US,
Fairburn Ready Mix Jenkinsburgh,,,US,
Fairplay Towing & Recovery,,,US,
Faribault Public Works,,,US,
Faribault Sewage Treatment,,,US,
FARM BOYS/ PETERSON FARMS,,,US,
Farstad Oil,,,US,
Federal-Mogul Corp,,,US,
FedEx Ground,,,US,
FEDEX GROUND,,,US,
FEDEX GROUND,,,US,
Fedex Ground,,,US,
FedEx Ground,,,US,
FedEx Ground,,,US,
Fedex Ground,,,US,
FedEx Ground,,,US,
FEDEX GROUND ROGERS,,,US,
Fedex Internet Tech Corp,,,US,
Fedex Ship Center,,,US,
Fedex Ship Center,,,US,
FEDEX SMARTPOST INC,,,US,
FERGUSON FIRE & FABRICATI,,,US,
Ferguson Fire & Fabrication,,,US,
Ferguson Waterworks,,,US,
Ferroglobe,,,US,
FHR - OPERATIONS,,,US,
FHR Terminal Operation,,,US,
FHR-Contractor Safety,,,US,
FHR-Nomex Stockroom,,,US,
Filet Of Chicken,,,US,
FINISHING BRANDS,,,US,
Firestone Metal Products Llc,,,US,
First District Association,,,US,
First Source Worldwide Llc,,,US,
FIRST STUDENT,,,US,
First Student Training Ctr,,,US,
FLINT GROUP,,,US,
Flint Hills Resources,,,US,
Flint Hills Resources,,,US,
Flint Hills Resources,,,US,
Flint Hills-Contractors,,,US,
Foley Products,,,US,
Foremost Farms Usa,,,US,
FORTIS COLLEGE-SMYRNA,,,US,
FOSS MANUFACTURING,,,US,
Fra-Dor Landscape Supply Inc,,,US,
Freeman Gas Co,,,US,
Freeman Gas Co,,,US,
Freeman Gas Co,,,US,
Freudenberg-Nok Gp,,,US,
Freudenberg-Nok Gp,,,US,
Frischkorn Inc,,,US,
Frito Lay,,,US,
Fuel South,,,US,
Fuel South,,,US,
GA TECH EHS HAZARDOUS MAT,,,US,
GA TECH/CHEM/BIOCHEM-BOGG,,,US,
GA TECH/CHEM-BIOCHEMISTRY,,,US,
GAF,,,US,
GAF,,,US,
Gainesville Ga Fresh- Pilgrims,,,US,
Gary Carlson Equipment,,,US,
Gas Inc,,,US,
Gas Inc,,,US,
Gas Inc,,,US,
Gas Inc,,,US,
Gas Incorporated,,,US,
Gas Incorporated,,,US,
Gaylor Electric,,,US,
GCDWR (CROOKED CREEK),,,US,
GCDWR (LANIER FILTER PLAN,,,US,
GCDWR (SHOAL CREEK),,,US,
GCDWR (YELLOW RIVER),,,US,
GCP APPLIED TECHNOLOGIES,,,US,
GCP Applied Technologies,,,US,
Ge Energy,,,US,
GEDIA,,,US,
Gene Cantrell L/A,,,US,
General Mills Inc,,,US,
General Shale,,,US,
General Steel Inc,,,US,
Genesis of Atlanta,,,US,
GEORGIA BALER,,,US,
Georgia Baler & Compactor,,,US,
Georgia Biomass Llc,,,US,
GEORGIA GWINNETT COLLEGE,,,US,
GEORGIA PACIFIC,,,US,
GEORGIA PACIFIC,,,US,
Georgia Pacific,,,US,
GEORGIA PACIFIC CHEMICALS,,,US,
Georgia Western Inc,,,US,
Georgia World Congress Center,,,US,
Georgia-Pacific Corp,,,US,
Georgia-Pacific Corp,,,US,
Georgia-Pacific Corp,,,US,
Georgia-Pacific Corrugated,,,US,
Gerald Jones Mazda,,,US,
Gerdau,,,US,
Gerdau Ameristeel,,,US,
Gerdau Chattanooga,,,US,
Gestamp Chattanooga 3,,,US,
GEZOLAN - DIRECT SALES,,,US,
GFL Environmental,,,US,
GFL ENVIRONMENTAL,,,US,
GFL Environmental,,,US,
Gilbert Mechanical Contrs Inc,,,US,
Gilmer Companies,,,US,
GMS,,,US,
GMS,,,US,
Golden Boy Foods,,,US,
Goldens Foundry,,,US,
Gondolier Pizza **La 1220,,,US,
Gopher Resource Corp,,,US,
Gordy'S Service Ctr,,,US,
Graco Inc,,,US,
Graco Inc,,,US,
GRAMMER INDUSTRIES,,,US,
Great Lakes Coca-Cola Bottling,,,US,
Great Lakes Petroleum,,,US,
GREDE,,,US,
GREEN CARBON,,,US,
GREENCORE,,,US,
GRE-HERC LLC,,,US,
"GREIF, INC.",,,US,
Griffin Industries-Dar Pro,,,US,
Griffith Laboratories,,,US,
H&E Equipment Svc Inc,,,US,
Handcock & Sons,,,US,
Haralson County Fire Dept,,,US,
HARRIS CALORIFIC,,,US,
Harrison Poultry Inc,,,US,
Hayden Murphy,,,US,
HB FULLER,,,US,
Hb Fuller Co,,,US,
Hb Fuller Co,,,US,
Hb Fuller Co,,,US,
HD SUPPLY WHITE CAP,,,US,
Heartland Corn Products,,,US,
HEAT CRAFT INC.,,,US,
Heckler & Koch Defense Inc,,,US,
Heidelberg Cement,,,US,
Heidelberg Materials,,,US,
Heidelberg Materials,,,US,
Helena Industries Inc,,,US,
Helton Electric,,,US,
HENKEL,,,US,
Henkel Corp,,,US,
Hennepin County Minnesota,,,US,
Hennessy Collision,,,US,
Hepaco Inc,,,US,
Herc Rentals,,,US,
Herc Rentals,,,US,
Herc U Lift Inc,,,US,
Herculift,,,US,
Heritage Breeders Llc,,,US,
HERMANTOWN CITY OF PUBLIC,,,US,
HEROLD PRECISION METALS LLC,,,US,
HIAB INC-SERVICE,,,US,
Highland Sanitation,,,US,
Highway Transport Chemical,,,US,
Hillman,,,US,
HIWASSEE PAVING,,,US,
HMF Express,,,US,
HMF Express,,,US,
HMONG AMER PART - ACKER S,,,US,
HOIST & CRANE,,,US,
Hoist & Crane SVC Group,,,US,
Hollingsworth & Vose Co,,,US,
Hollis Transport Agency,,,US,
Holmes Welding Inc,,,US,
Honeywell,,,US,
Honeywell Aerospace,,,US,
Hood Packaging,,,US,
Hoshizaki America Inc,,,US,
Hostess Brands Llc,,,US,
House of Raeford,,,US,
Hubbell Power Systems Inc,,,US,
Hussmann Corp,,,US,
HYDRADYNE,,,US,
HYDROCHEM,,,US,
Hyundai Dymos Georgia Llc,,,US,
IA Bulk Materials,,,US,
Idexx Laboratories Inc,,,US,
Imerys,,,US,
Imerys Carbonates,,,US,
Imerys Marble,,,US,
Imerys Usa Inc,,,US,
Inalfa Roof Systems,,,US,
INDUSTRIAL DISTRIBUTION,,,US,
INDUSTRIAL LUBE CO COHASS,,,US,
Industrial Manufacturing Inc,,,US,
Industrial Mechanical Inc,,,US,
Industrial Site Services,,,US,
Industrial Valve Sales & Svc,,,US,
INGEVITY,,,US,
Inland Seafood,,,US,
Innovative Metals Co,,,US,
Integrity Fusion Products Inc,,,US,
INTERFOR,,,US,
Interfor,,,US,
Interfor Inc Us,,,US,
Interfor Us Inc,,,US,
Interfor Us Inc,,,US,
Interfor-Thomaston Div,,,US,
IN-TERMINAL,,,US,
International Paper,,,US,
International Paper Co,,,US,
International Paper Co,,,US,
International Paper Co,,,US,
International Paper Co,,,US,
International Paper Co,,,US,
International Paper Co,,,US,
International Paper Co,,,US,
International Paper Co,,,US,
International Paper Co,,,US,
International Paper Co,,,US,
International Paper Co,,,US,
International Paper Co,,,US,
INTERNATIONAL SERVICE CON,,,US,
INTERNATIONAL WIRE GROUP,,,US,
Interstate Assembly Systems,,,US,
Interstate Co,,,US,
Interstate Electric Motor Rpr,,,US,
Interstate Power Systems,,,US,
Intonu Llc,,,US,
Ireland Electric Co,,,US,
Irving Tissue,,,US,
ISD 622,,,US,
Isi,,,US,
ISONOVA TECHNOLOGIES,,,US,
I-State Truck Center,,,US,
Ivc Us Inc,,,US,
Ivey Mechanical Co Llc,,,US,
IWCO,,,US,
J M Huber Corp,,,US,
J&B Group,,,US,
JABIL,,,US,
Jack Links,,,US,
Jack Stevens Welding,,,US,
Jasper County Charter System,,,US,
Jat Oil Inc,,,US,
JBT CORPORATION,,,US,
Jeff'S Welding,,,US,
Jennie-O Turkey Store,,,US,
Jennie-O Turkey Store,,,US,
Jennie-O Turkey Store,,,US,
Jennie-O Turkey Store,,,US,
Jennie-O Turkey Store,,,US,
Jennie-O Turkey Store,,,US,
Jennie-O Turkey Store Inc,,,US,
JENSENS CONCRETE LINE PUM,,,US,
JH FOSTER,,,US,
Jim Ellis Alfa Romeo Atlanta,,,US,
Jim Ellis Volkswagen,,,US,
Jim Ellis Vw Of Chamblee,,,US,
JLL,,,US,
JLL ALF01,,,US,
JLL/ Wells Fargo,,,US,
JLL/Wells Fargo,,,US,
JLL/Wells Fargo,,,US,
John Deere,,,US,
John Deere Seeding Group,,,US,
JOHN HENRY FOSTER,,,US,
JOHN HENRY FOSTER,,,US,
JOHN HENRY FOSTER,,,US,
JOHN HENRY FOSTER,,,US,
John Henry Foster,,,US,
JOHN HENRY FOSTER CANNON,,,US,
Johnson Controls Atlanta,,,US,
Josh Roberts Trucking Inc,,,US,
JOY GLOBAL,,,US,
JRB ATTACHMENTS,,,US,
JTEKT NORTH AMERICA,,,US,
KANE TRANSPORT,,,US,
Kane Transport Inc,,,US,
Kane Transport Inc,,,US,
Kannegiesser Truck Sales,,,US,
Kawneer Co Inc,,,US,
Kemira Chemicals,,,US,
Ken Garner Mfg Co,,,US,
KENNESAW STATE UNIVERSITY,,,US,
KENNESAW STATE UNIVERSITY,,,US,
Kentucky Tennessee Clay,,,US,
Kenyon Utilities Dept,,,US,
Key Contracting Inc,,,US,
Keystone Concrete Foundations,,,US,
Kik Custom Products,,,US,
Kinetico,,,US,
Kloeckner Metals,,,US,
Kloeckner Metals,,,US,
Knife River Corp,,,US,
Koch Agronomic Services,,,US,
Koch Foods Inc,,,US,
Koch Foods Inc,,,US,
Koch Foods Inc,,,US,
Koch Foods Inc,,,US,
Koch Foods Truck Shop,,,US,
Koch Pipeline Co,,,US,
Kohl'S Distribution Ctr,,,US,
KOPPERS,,,US,
KOPPERS-CHANCEY,,,US,
KORDSA,,,US,
Koyo Bearings Usa Llc,,,US,
"KPS, LLC",,,US,
KRAEMER MINING & MATERIALS INC,,,US,
Kroger,,,US,
Kroger Atlanta Dc,,,US,
KUBOTA KIE,,,US,
Kumho Tire Usa Inc,,,US,
L & S Electric,,,US,
LAGRANGE SANITATION,,,US,
Lake Country Power,,,US,
Lake States Tree Svc,,,US,
Laker Hall,,,US,
Lakeside Foods,,,US,
Lance Oil,,,US,
Lance Wrecker Service,,,US,
Land O' Lakes,,,US,
Land O'Lakes Milk,,,US,
Land Olakes Purina Feed Llc,,,US,
Lang Farms,,,US,
LANZA TECH,,,US,
Larry Reid'S Chrysler,,,US,
Lawrenceville City Shop,,,US,
Ldi Liberty Paper,,,US,
Lehigh Hanson,,,US,
Lehigh Hanson,,,US,
LePage & Sons,,,US,
Lf Manufacturing Inc,,,US,
Liberty Tire Recycling,,,US,
Liberty Tire Recycling,,,US,
LIBERTY UTILITIES,,,US,
LIFT ONE LLC AUGUSTA,,,US,
LIFTONE CTE MLA,,,US,
LIFTONE-MLA,,,US,
Lincoln Industries,,,US,
LINDE,,,US,
Links Auto Service,,,US,
Litchfield Machine Works,,,US,
LITTFIN LUMBER CO,,,US,
LKQ,,,US,
Lkq Corp,,,US,
Lock Joint Tube,,,US,
LOUISIANA PACIFIC-ELECTRI,,,US,
LOUISIANA PACIFIC-TWO HAR,,,US,
Lsc Communications,,,US,
LUND FOOD HOLDINGS INC.,,,US,
Luther Brookdale Toyota,,,US,
LZB Mfg Inc,,,US,
M & W Heating & Air,,,US,
M&L Custom Works Inc,,,US,
MACDERMID ENTHONE,,,US,
MACHINE TOOL CAMP LLC,,,US,
Macqueen Equipment Inc,,,US,
MANNINGTON/SHOES ONLY/MAD,,,US,
MANUFACTURERS CHEMICALS L,,,US,
Manufacturing Foss,,,US,
MAPLE ISLAND,,,US,
Maplewood City Clerk,,,US,
Marshall Concrete Products Inc,,,US,
Martin Marietta,,,US,
Martin Marietta,,,US,
Martin Marietta,,,US,
Martin Marietta,,,US,
Martin Marietta Aggregates,,,US,
Martin Marietta Aggregates,,,US,
Martin Marietta Aggregates,,,US,
Martin Marietta Aggregates,,,US,
Martin Marietta Aggregates,,,US,
Martin Marietta Aggregates,,,US,
Martin Marietta Aggregates,,,US,
Masonite,,,US,
Masonite,,,US,
Master Buick Gmc,,,US,
Matheson,,,US,
MATHESON TRI GAS,,,US,
Mativ,,,US,
Matthews Garage,,,US,
Mauser container,,,US,
Mauser Large Packaging,,,US,
Mauser Packaging,,,US,
MBI,,,US,
Mc Cormick Commission Public,,,US,
Mc Cormick County Public Works,,,US,
Mc Whorter Logging,,,US,
MCCORMICK & MCCORMICK INC,,,US,
MCLEOD COUNTY HIGHWAY DEPT,,,US,
MCPHERSON COMPANIES,,,US,
MECHANICAL CONTRACTORS,,,US,
Mellow Mushroom - Cold Storage Warehouse,,,US,
Menasha,,,US,
MENOMONIE DISPOSAL SERVIC,,,US,
Mercy Hospital,,,US,
Mercy Hospital - Unity Campus,,,US,
Merts Inc,,,US,
MESSER,,,US,
Metal Specialists Of Augusta,,,US,
Metalcrafters Of Stacy,,,US,
Metal-Matic Inc,,,US,
Metro Mech Contractors,,,US,
Metromont Corp,,,US,
MGX Equipment,,,US,
Microsoft Data Center,,,US,
Midsouth Aggregates,,,US,
MIDSOUTH PAVING,,,US,
Midsouth Paving Inc,,,US,
Midwest Contracting Llc,,,US,
MI-JACK ATLANTA,,,US,
Mike Floyd Paving,,,US,
Milliken & Co,,,US,
Mills Products Inc,,,US,
MINNEAPOLIS WATER DIST,,,US,
Minnesota Diversified Indstrs,,,US,
MINNESOTA SPECIALTY YEAST LLC,,,US,
MISSING CUST / SEE SOURCE,,,US,
Mistras Group,,,US,
Mitchell Metals Llc,,,US,
MJ Electric,,,US,
Mjc Inc,,,US,
MN DEPT OF TRANS-CROOKSTON,,,US,
MN DOT,,,US,
MN DOT,,,US,
MN DOT,,,US,
MN DOT MAPLE GROVE,,,US,
MN DOT PLYMOUTH,,,US,
MN DOT-Carlton Truck Station,,,US,
MNDOT,,,US,
MNDOT,,,US,
Mobile Mini Inc,,,US,
Mocorp Inc,,,US,
Modern Heating & Air Cond,,,US,
Mohawk,,,US,
MOHAWK,,,US,
Mohawk,,,US,
Mohawk,,,US,
Mohawk - Antioch,,,US,
Mohawk - Space Dye,,,US,
Mohawk Carpet Llc,,,US,
MOHAWK HOME,,,US,
Mohawk Home,,,US,
Mohawk Home,,,US,
Mohawk Ind 0204,,,US,
Mohawk Industries,,,US,
MOHAWK INDUSTRIES - COATE,,,US,
Mohawk Industries Inc,,,US,
Mohawk Industries Inc,,,US,
Mohawk Industries Inc,,,US,
Mohawk Industries Inc,,,US,
Mohawk Industries Inc,,,US,
"Mohawk, Ind, Workd Division",,,US,
MOLIN CONCRETE PRODUCTS,,,US,
Mondi Bag,,,US,
MONSANTO,,,US,
Monsanto Co,,,US,
MONTGOMERY K-8 SCHOOL TRI-CITY UNITED PS ISD 2905,,,US,
Morgan Thermal Ceramics Inc,,,US,
Morgan Truck Body LLC,,,US,
MORRIES CADILLAC SAAB,,,US,
Morrow Equipment Co Llc,,,US,
Motion Industries Inc,,,US,
Motor Wheel International,,,US,
MRG TOOL & DIE,,,US,
MSG Rebuild Center at Southwire,,,US,
MTL,,,US,
MTU DIESEL,,,US,
Mueller,,,US,
Mueller Cleveland Industrial,,,US,
Muller Load Containment Sltns,,,US,
NA-Ingersoll Rand,,,US,
NA-Team Cooper Heat MQS,,,US,
Natural Resources Research Institute,,,US,
Naturchem,,,US,
Nelson Wood Shims,,,US,
Nestle Purina Pet Care Co,,,US,
New French Bakery,,,US,
New French Cafe,,,US,
New Hope Public Works Dept,,,US,
NEW LINE TRANSPORT,,,US,
NEWARK GROUP,,,US,
Newell Recycling,,,US,
NEWELL RECYCLING MAINT DE,,,US,
Newell Recycling Southeast,,,US,
Newly Weds Foods Inc,,,US,
Nexus Circular LLC,,,US,
Nibco Inc,,,US,
Nippon Paint,,,US,
NISSAN OF ATHENS SUPPLIES,,,US,
NISSWA SANITATION,,,US,
NITRO QUIMICA CORPORATION,,,US,
Nixon Power Svc,,,US,
Nolato Contour,,,US,
Nordson,,,US,
North Cobb Electrical Svc Inc,,,US,
North Georgia Ready Mix,,,US,
NORTH STAR DIESEL SERVICE,,,US,
NORTH STAR SHEETS,,,US,
NORTHERN AIR CORP,,,US,
Northern Dewatering,,,US,
Northern Iron,,,US,
Northern Metal Fab Inc,,,US,
NORTHERN METAL RECYCLING,,,US,
Northland Choice,,,US,
Northshore Mining Co,,,US,
NORTHSHORE MINING CO,,,US,
Northside Packing Of Georgia,,,US,
Northstar Imaging Inc,,,US,
NOURYON CHEMICALS LLC,,,US,
Novalis International,,,US,
Novelis,,,US,
Novelis Global Research & Tech,,,US,
NPAA,,,US,
Nuss Truck & Equipment,,,US,
Oglethorp Power Corp,,,US,
Oil Rossee Co,,,US,
OLDCASTLE,,,US,
Oldcastle Building Envelope,,,US,
OLDCASTLE GLASS WAREHOUSE,,,US,
OLDCASTLE GMS,,,US,
Oldcastle Infrastructure,,,US,
Oldcastle Lawn & Garden,,,US,
Oldcastle Precast,,,US,
Oldcastle/GMS,,,US,
Olin Corp,,,US,
Olmsted Waste Energy,,,US,
OSI Enviromental,,,US,
Osi Environmental Inc,,,US,
Osi Environmental Inc,,,US,
Osterman Propane,,,US,
Owens Corning,,,US,
Owens Corning,,,US,
Owens Corning,,,US,
Owens Corning - Asphalt,,,US,
Owens Corning - Roofing,,,US,
Owens Welding,,,US,
P&G-Duracell Brand,,,US,
Packaging Corp Of America,,,US,
PACKAGING CORP OF AMERICA,,,US,
Pak-Lite Inc,,,US,
Pals,,,US,
PARK CONSTRUCTION,,,US,
Parker Hannifin Corp Quick,,,US,
Parmalat,,,US,
PATHFINDER Power Solutions,,,US,
Patton'S Inc,,,US,
PAUL MUELLER PACKAGING SO,,,US,
PCA,,,US,
PCA,,,US,
PCA,,,US,
PECCO PALLET,,,US,
Pelham Housing Authority,,,US,
Penske Truck Leasing*La,,,US,
PEPSI DISTRIBUTING,,,US,
Perdue,,,US,
PERDUE,,,US,
Perdue Farms Inc,,,US,
Perdue Farms Inc,,,US,
Performance Propane,,,US,
Perkins Shibaura Engines Llc,,,US,
PFIZER PCH THERMACARE,,,US,
PHILLIPS MEDISIZE METAL I,,,US,
Phillips Plastics,,,US,
Phillips Plastics Corp,,,US,
Phillips-Medisize,,,US,
Phillips-Medisize,,,US,
Phillips-Medisize,,,US,
Phillips-Medisize,,,US,
Piedmont Mining Llc,,,US,
Piedmont Paving Inc,,,US,
Pilgrims Athens Ga Feed Mill,,,US,
Pilgrims Athens Ga Hatchery,,,US,
Pilgrims Athens Georgia Debone,,,US,
Pilgrims Commerce GA Feed Mill,,,US,
Pilgrims Commerce Ga Hatchery,,,US,
Pilgrim's Fresh Plantmike.moye@pilgrims.,,,US,
Pilgrim's Live Hall,,,US,
Pilgrim's Mill,,,US,
Pilgrim's Pride,,,US,
Pilgrim's Pride - Maintenance,,,US,
Pilgrim'S Pride Corp,,,US,
Pilgrim'S Pride Corp,,,US,
Pilgrim'S Pride Corp,,,US,
Pilgrim's Pride Hatchery,,,US,
Pilgrim's Truck Shop,,,US,
Pioneer Metal Finishing,,,US,
PJ FOOD DISTRIBUTION,,,US,
Plaisted Landscape Supply,,,US,
PLATINUM TRAILER LEASING,,,US,
Pods,,,US,
POLAR SERVICE CENTERS,,,US,
Polar Service Ctr,,,US,
POLAR SERVICES,,,US,
POLARIS INDUSTRIES INC,,,US,
Polyone,,,US,
POLYONE(P)CORPORATION,,,US,
Polyventive,,,US,
Ponsse North America Inc,,,US,
Potters Industries,,,US,
POWER & ENERGY SVC,,,US,
PPG,,,US,
Ppg Aerospace,,,US,
PPG Architectural Finishes Inc,,,US,
Ppm,,,US,
Pratt & Whitney Engine Svc,,,US,
Praxair Services Inc,,,US,
PRECISION PULLEY INC,,,US,
Preferred Compounding Corp,,,US,
PREFERRED FREEZER,,,US,
Premium Waters,,,US,
Premium Waters Inc,,,US,
Premium Waters Inc,,,US,
Primex Color Compounding,,,US,
Primex Manufacturing,,,US,
Primex Plastics Corp,,,US,
PRINTPACK,,,US,
PRINTPACK INC,,,US,
Printpack Inc,,,US,
PRINTPACK INC,,,US,
Pro Access Systems,,,US,
PRODUCT TECHNOLOGIES INC,,,US,
Profile Products,,,US,
Proflame Gas,,,US,
Progress Container & Display,,,US,
Progress Rail Svc,,,US,
Proliant Inc,,,US,
Protein Pilgrim's,,,US,
Psi Engineering Llc,,,US,
PUBLIC WORKS,,,US,
PUBLIC WORKS,,,US,
PUBLIX ATL BKRY 15107100,,,US,
PUBLIX CAFETERIA,,,US,
Publix Fresh Kitchen,,,US,
Publix Super Market,,,US,
Pumping Systems Inc,,,US,
PURIS,,,US,
Pyramid Masonry Contractors,,,US,
Qarbon Aerospace,,,US,
QTS OPERATIONS SUPPORT CENTER,,,US,
Quad Graphics,,,US,
QUAD GRAPHICS,,,US,
Quality Carriers,,,US,
Quality Fabricating,,,US,
Quality Ingredients,,,US,
Quality Technology Svc Llc,,,US,
QUALTIY DISTRIBUTION,,,US,
Quikrete,,,US,
Quincy Compressor,,,US,
R & D Maintenance Svc Inc,,,US,
R R Donnelley,,,US,
R R Donnelley,,,US,
RABUN COUNTY SCHOOLS,,,US,
Rain For Rent,,,US,
Rain For Rent,,,US,
Rapids Process Equipment,,,US,
Rdo Agriculture Equipment Co,,,US,
RDO Equipment,,,US,
Rdo Equipment Co,,,US,
RDO EQUIPMENT-MOORHEAD,,,US,
Ready Mix 5354,,,US,
Ready Mix Usa,,,US,
Ready Mix Usa,,,US,
READY MIX USA,,,US,
Ready Mix USA,,,US,
READY MIX USA,,,US,
READY MIX USA,,,US,
"Ready Mix, USA",,,US,
READY MIX-CEMEX,,,US,
Red Oak Sanitation,,,US,
Red Oak Sanitation Inc,,,US,
Red Wing Chevrolet Buick Cad,,,US,
Redamix Usa,,,US,
Reeves Construction Co,,,US,
Reeves Construction Co,,,US,
Regal Rexnord,,,US,
REGENTS OF THE UNIVERSITY,,,US,
Rehrig Pacific Co,,,US,
Reladyne,,,US,
RelaDyne - Sun Coast,,,US,
Renewal By Andersen Llc,,,US,
Republic Services,,,US,
Republic Services,,,US,
Republic Services,,,US,
Republic Services,,,US,
Republic Services,,,US,
Republic Services,,,US,
Republic Services,,,US,
REPUBLIC SERVICES,,,US,
Republic Services,,,US,
Republic Services,,,US,
Republic Services,,,US,
Republic Services,,,US,
RESERVE ALLOYS,,,US,
Rhea Co Maintenance,,,US,
Rhea Maintenance,,,US,
Rice Lake Weighing Systems,,,US,
RICH PRODUCTS,,,US,
Richland Creek Landfill,,,US,
Rickard Electric Inc,,,US,
Rig Up ATL,,,US,
RIHM - PARTS S. ST. PAUL,,,US,
Rihm Kenworth,,,US,
Ring Power,,,US,
Ring Power Corp,,,US,
RINKER,,,US,
Rinker Materials,,,US,
Rinker Materials,,,US,
Rinnai,,,US,
Rion Equipment,,,US,
Rion Equipment,,,US,
RIVER COUNTRY CO-OP,,,US,
River Country Co-Op,,,US,
River Country Co-Op,,,US,
River Country Co-Op,,,US,
River Country Co-Op,,,US,
RIVER COUNTRY COOPERATIVE,,,US,
Rms Tritec Llc,,,US,
Road Machine Mining Solutions,,,US,
ROAD MACHINERY & SUPPLIES CO,,,US,
Road Machinery & Supplies Co,,,US,
Road Machinery & Supplies Co,,,US,
Robert Bosch Llc,,,US,
Robert Bosch Llc,,,US,
Robert Bosch Llc,,,US,
Robert Gibb-Sons-Corporate Ofc,,,US,
Rocky Bottom Timber Co,,,US,
RSI Logistics,,,US,
Ruff Manufacturing Inc,,,US,
RUFFRIDGE JOHNSON EQUIPMENT,,,US,
Rush Enterprises,,,US,
Rustoleum,,,US,
RWBT Inc,,,US,
S A RECYCLING,,,US,
S A White Fax,,,US,
SA RECYCLING,,,US,
SA RECYCLING,,,US,
SA Recycling,,,US,
SA Recycling,,,US,
SA RECYCLING,,,US,
SA RECYCLING,,,US,
SA Recyling,,,US,
SAB CHANGEHOUSE,,,US,
SAB/NAB,,,US,
Sackett Waconia,,,US,
Sackett Waconia,,,US,
Safety Kleen,,,US,
SAGE ELECTROCHROMICS INC,,,US,
Saint Paul Admin (Electric shop),,,US,
Saint paul admin (grounds),,,US,
Saint Paul Admin (Machine Shop),,,US,
Saint Paul Admin (Pipe Shop),,,US,
Sales & Marketing,,,US,
Sanderson Farms,,,US,
Sanderson Farms,,,US,
Sanimax Usa Inc,,,US,
Sappi Fine Paper North America,,,US,
Saputo Cheese Usa Inc,,,US,
Saputo Dairy Foods Usa,,,US,
Sasco Chemical Group Llc,,,US,
Schwieters Chevrolet-Cold Spg,,,US,
SCOTT'S COMPANY,,,US,
Scott'S Hyponex Corp,,,US,
Sealy Mattress Corp,,,US,
Sensoryeffects Powder Systems,,,US,
Sese',,,US,
SHAKOPEE ENERGY PARK,,,US,
SHEARERS,,,US,
SHERWIN WILLIAMS,,,US,
SHERWIN WILLIAMS,,,US,
SHERWIN WILLIAMS,,,US,
SHERWIN WILLIAMS,,,US,
Sherwin-Williams Co Dist Ofc,,,US,
Sherwin-Williams Prod Finishes,,,US,
SHRED IT,,,US,
Shumate Mechanical Htg & Air,,,US,
Sierra Pacific,,,US,
Sierra Sheet & Plate,,,US,
SIKA US,,,US,
Silver Spring Foods Inc,,,US,
Silver Tip Propane,,,US,
Silvertip Propane,,,US,
Silvertip Propane,,,US,
Silvertip Propane,,,US,
SitePro,,,US,
SK Foods,,,US,
Skb Environmental,,,US,
SMITH EQUIPMENT CONSOLD,,,US,
SMITHCO WEST INC-OFFICE,,,US,
SOLAR PLASTICS,,,US,
SOLVAY,,,US,
Solvay Specialty Polymers Llc,,,US,
Solvayspecialty Polymers,,,US,
Sonoco Products Co,,,US,
Sonstegard Foods Of Georgia,,,US,
South Eastern Consulting,,,US,
SOUTHEAST CONNECTIONS,,,US,
Southeast Connections,,,US,
Southeast Connections Llc,,,US,
Southern Gunite,,,US,
Southern Rewinding Indl Sales,,,US,
Southern Steel Buildings Llc,,,US,
Southern Tire Mart,,,US,
Southway Crane & Rigging,,,US,
Southwire,,,US,
Southwire Co,,,US,
Southwire Co,,,US,
Southwire Co Llc,,,US,
Southwire Company***,,,US,
Southwire General Services,,,US,
Southwire North Campus,,,US,
Spectra Metal Sales Inc,,,US,
Spectrum Maintenance Svc,,,US,
Spf North America,,,US,
Splash,,,US,
Ssab Enterprises Llc,,,US,
St Francis City Hall,,,US,
St Louis County / A.P Cook,,,US,
St Louis County Public Safety,,,US,
St Paul Brass-Aluminum Foundry,,,US,
Stananco Inc,,,US,
Standard Iron & Wire Works,,,US,
Star Equipment Ltd,,,US,
STARRETT TRU-STONE TECH DIV,,,US,
STATE OF MN AIR NATIONAL GUA,,,US,
Steelcell,,,US,
Stella Jones,,,US,
Stepan Co,,,US,
Stepan Co,,,US,
STEPAN CO,,,US,
Stericycle,,,US,
Stericycle,,,US,
Stericycle,,,US,
Sterigenics,,,US,
Steris Isomedix Svc,,,US,
Stevenson Utilities Water,,,US,
Stickney Ingredients Co.,,,US,
Stock Yards,,,US,
STORK GAMCO INC,,,US,
STORM POWER COMPONENTS,,,US,
STRATEGIC MATERIALS,,,US,
Strategic Materials Inc,,,US,
Street Department,,,US,
Stryten,,,US,
STRYTEN ENERGY,,,US,
Stryten Energy,,,US,
Sugar Foods Corp,,,US,
Sun Chemical Corp,,,US,
Sun Gas Inc,,,US,
SUNNY DELIGHT BEVERAGE CO,,,US,
SUNOPTA GRAINS AND FOOD GROUP,,,US,
SUNOPTA GRAINS AND FOODS,,,US,
Sunstate Equipment Co,,,US,
Superior Diamond Concrete,,,US,
Superior Energy,,,US,
Superior Energy,,,US,
Superior Energy,,,US,
Superior Plus Energy,,,US,
Superior-Lidgerwood-Mundy Corp,,,US,
Surlean Foods,,,US,
Sustainable Corrugated,,,US,
Sutton Transport,,,US,
Swanton Welding & Machining Co,,,US,
SWM International,,,US,
Sylvester City Light & Gas,,,US,
SYNERGIES,,,US,
"SYNERGIES, LLC",,,US,
T M Trailer Sales,,,US,
T S Usa,,,US,
T3858 Minneapolis Mixing Center,,,US,
Target,,,US,
Target DC Flow Center T3868,,,US,
Target Distribution Ctr,,,US,
Target Distribution Ctr,,,US,
TARGET.COM,,,US,
Tate & Lyle,,,US,
TAYLOR GROUP-SUDDEN SERVIC,,,US,
Taylor-Made Pumping,,,US,
Tci Powder Coatings,,,US,
Td Automotive Compressor Ga,,,US,
TEAM INC,,,US,
Team Industrial Svc Inc,,,US,
Team Industries,,,US,
Team Industries Inc,,,US,
Team Industries Inc,,,US,
Team Industries Inc,,,US,
Tech Ord Div Of Amtec Corp,,,US,
Tel Com Construction Inc,,,US,
Ten Cate Grass North America,,,US,
TENCARVA,,,US,
Tencarva Machinery Co,,,US,
Tencate Geosynthetics Na,,,US,
Tendon Systems Llc,,,US,
TENNANT CO,,,US,
Tensar Corp,,,US,
Terex Corp,,,US,
TESLA MOTORS INC,,,US,
Textile & Indl Sales Inc,,,US,
The Champion's Cafe L/A,,,US,
THE COLT GROUP,,,US,
The Colt Group,,,US,
The Lewis Company,,,US,
The Meadows @ Mystic Lake,,,US,
THE TURKEY STORE,,,US,
THE UNIVERSITY OF GEORGIA,,,US,
Thiele Kaolin Co,,,US,
Thomas & Betts Corp,,,US,
Thomas Concrete,,,US,
Thomas Reuters,,,US,
Thompson Carriers Inc,,,US,
THOMPSON CONSTRUCTION GRO,,,US,
Thompson Hardwoods,,,US,
THOMPSON INDUSTRIAL SVC,,,US,
Thompson Industrial Svc.,,,US,
Thompson Lift Truck Co,,,US,
Thompson Lift Truck Co,,,US,
Thompson Tractor,,,US,
Thompson Tractor,,,US,
Thomson Plastics Inc,,,US,
ThyssenKrupp,,,US,
"Ticar Inc, L/A 1003",,,US,
TICA-SAND CASTING,,,US,
Tie Down Engineering-Sale,,,US,
TIN INC. DBA INTERNATIONA,,,US,
Todd County Solid Waste,,,US,
Tomco2 Systems,,,US,
Toro Co,,,US,
Tosca Ltd,,,US,
TOTAL CONSTRUCTION,,,US,
Total Tool Supply,,,US,
TOWER ASPHALT,,,US,
Towmaster Trailers Inc,,,US,
Toya Tire Na,,,US,
Toyota Forklifts Of Atlanta,,,US,
Toyota Forklifts Of Augusta,,,US,
Toyota-Lift Of Minnesota,,,US,
TRACTOR & EQUIPMENT,,,US,
Tractor & Equipment Co,,,US,
Tractor & Equipment Co,,,US,
Tranco Logistics Llc,,,US,
Trane,,,US,
TRANSOUTH ELECTRICAL,,,US,
Transportation Department,,,US,
Transportation Department,,,US,
Transportation Department,,,US,
Transportation Department,,,US,
Transportation Department,,,US,
Travel Tags Inc,,,US,
Treasure's Island,,,US,
TREEHOUSE,,,US,
Tremco,,,US,
Tremco,,,US,
Tremron,,,US,
Tri County Solid Waste Auth,,,US,
Triad Specialties,,,US,
Trimac Transportation,,,US,
Trimac Transportation,,,US,
TRINITY INDUSTRIES,,,US,
TRINITY INDUSTRIES-WELDER,,,US,
TRINSEO LLC,,,US,
Triumph Sheets,,,US,
Troup County Emergency Mgmt,,,US,
TRUCK SERVICE DEPOT,,,US,
True North Equipment,,,US,
TUBE CITY IMS AT GERDAU,,,US,
Turkey Store Co,,,US,
Twin Cities Baler & Compactor,,,US,
Twin City Container,,,US,
TWO HARBORS CITY GARAGE,,,US,
Tyler'S Machine Shop Inc,,,US,
Tyson Foods,,,US,
Tyson Foods,,,US,
Union Tank Car,,,US,
Union Tank Car Co,,,US,
Unison Comfort Technologies,,,US,
United Recycling,,,US,
UNITED RENTAL,,,US,
UNITED RENTALS,,,US,
United Rentals,,,US,
United Rentals,,,US,
United Rentals,,,US,
United Rentals,,,US,
United Rentals,,,US,
United Rentals,,,US,
UNITED RENTALS,,,US,
United Rentals,,,US,
United Rentals,,,US,
United Rentals,,,US,
United Rentals,,,US,
United Rentals,,,US,
UNITED RENTALS,,,US,
United Rentals,,,US,
United Rentals,,,US,
UNITED RENTALS,,,US,
UNITED RENTALS D04,,,US,
United Site Services,,,US,
UNIVERSAL ALLOY COMPANY,,,US,
Universal Alloy Corp,,,US,
UNIVERSAL ENVIRONMENTAL,,,US,
Universal Environmental,,,US,
Universal Environmental Svc,,,US,
University Of Georgia Budget,,,US,
UNIVERSITY OF ST THOMAS,,,US,
UPONOR,,,US,
UPONOR,,,US,
US CONTRACTING TRUCKING -,,,US,
Us Corrugated,,,US,
Us Foods,,,US,
Us Minerals,,,US,
US PIPE,,,US,
US PIPE FABRICATION,,,US,
US SILICA,,,US,
UTILICON SERVICES INC,,,US,
Utlx,,,US,
Valley Machine & Welding Co,,,US,
Valley Paving Inc,,,US,
Valley Queen Cheese Factory,,,US,
Valmont Utility,,,US,
Vanguard National Trailer Corp,,,US,
VDL Groep,,,US,
VEOLIA ENERGY,,,US,
VEOLIA ENERGY - ST PAUL,,,US,
VEOLIA ENVIRONMENTAL SVC,,,US,
VEOLIA NORTH AMERICA,,,US,
Veolia Water,,,US,
VEOLIA WATER,,,US,
Vet'S Plus Inc,,,US,
VIC'S CRANE,,,US,
Vic's Crane and Heavy Haul,,,US,
Viking Coca-Cola Bottling Co,,,US,
Viking Gas Transmission Co,,,US,
Viking Industrial,,,US,
VIRGINIA CITY,,,US,
Voestalpine Automotive Components,,,US,
VOGEL CUSTOM MANUFACTURING,,,US,
Vulcan,,,US,
Vulcan Heating & Ac Svc,,,US,
Vulcan Jefferson,,,US,
Vulcan Materials,,,US,
Vulcan Materials,,,US,
Vulcan Materials,,,US,
Vulcan Materials,,,US,
Vulcan Materials,,,US,
Vulcan Materials - 1733 -112,,,US,
Vulcan Materials - 1736-112,,,US,
Vulcan Materials #1716-111,,,US,
Vulcan Materials #1734-111,,,US,
Vulcan Materials #1735-112,,,US,
Vulcan Materials Co,,,US,
Vulcan Materials Co,,,US,
Vulcan Materials Co,,,US,
Vulcan Materials Co,,,US,
Vulcan Materials Co,,,US,
Vulcan Materials Co,,,US,
Vulcan Materials Co,,,US,
vulcan materials company,,,US,
Vulcan Materials Dayton,,,US,
Vulcan Materials Electrical,,,US,
Vulcan Materials Electrical Site 2,,,US,
Vulcan of Rabun Gap,,,US,
W W Williams Co,,,US,
W.W Williams,,,US,
W.W. WILLIAMS COMPANY,,,US,
Wald Family Foods,,,US,
"Walgreens 42-Pendergrass, Ga",,,US,
Walker Meats,,,US,
Walser Nissan,,,US,
Walser Polar Chevrolet,,,US,
Waste Eliminator,,,US,
Waste Industries Inc,,,US,
Wastequip,,,US,
"WATER, GAS & LIGHT COMMIS",,,US,
"WATER, GAS & LIGHT COMMIS",,,US,
"WATER, GAS & LIGHT COMMIS",,,US,
Wayfair,,,US,
Wayne Davis Concrete,,,US,
Wayne Davis Concrete,,,US,
Wayne Davis Concrete,,,US,
Wayne Davis Concrete,,,US,
Wayne Davis Concrete,,,US,
Wayne Davis Concrete,,,US,
Wayne Davis Concrete - Six Mile,,,US,
Wayne Davis Concrete Co,,,US,
Wayne Davis Concrete Co,,,US,
Wayne Davis Concrete Co,,,US,
Wayne Davis Concrete Co,,,US,
Wayne Davis Concrete Co,,,US,
Wayne Davis Concrete Co,,,US,
Wayne Davis Concrete Co,,,US,
Wayne Davis Concrete Co,,,US,
Wayne Davis Concrete Co,,,US,
WAYNE FARMS,,,US,
Wayne Farms Llc,,,US,
Wcr Inc,,,US,
Weg Electric Corp,,,US,
WESCOM,,,US,
WEST FRASER,,,US,
WEST FRASER,,,US,
West Fraser - Augusta Lumber Mill,,,US,
WEST ROCK,,,US,
West Rock-Rock Tenn,,,US,
Western Integrated Seed,,,US,
Westrock,,,US,
Westrock,,,US,
Westrock,,,US,
Westrock,,,US,
Westrock,,,US,
Westrock,,,US,
Westrock,,,US,
Westrock,,,US,
Westrock,,,US,
Westrock,,,US,
Westrock Lithia Spgs Preprint,,,US,
Westrock Maintenance,,,US,
Wheeler Material Handling,,,US,
WHEELER MATERIAL HANDLING,,,US,
WHEELER MATERIAL HANDLING,,,US,
Whitaker Oil Co,,,US,
White Cap,,,US,
WHITESTONE TRANSPORTATION,,,US,
Wieser Concrete Products Inc,,,US,
Wikoff Color Corp,,,US,
Wilbert Plastic Svc Inc,,,US,
Wilhite Trailer Sales,,,US,
William Scotsman Mobile Mini,,,US,
WILLIAMS INSTITUTIONAL FO,,,US,
WILLIAMS SCOTSMAN,,,US,
Willmar Forklift Inc,,,US,
WINCORE WINDOW COMPANY,,,US,
Winsupply Co,,,US,
WISCONSIN CENTRAL,,,US,
Wlssd Clean Shop Program,,,US,
Woodbridge Foam Fabricating,,,US,
WORKS WATER CITY,,,US,
Wright County Facilities,,,US,
WRIGHT METAL PRODUCTS,,,US,
Wright-Hennepin Co-Op Electric,,,US,
XPO LOGISTICS,,,US,
YANCEY BROS CO,,,US,
YANCEY BROS CO,,,US,
Yancey Bros Co,,,US,
Yancey Bros Co,,,US,
YANCEY BROS CO,,,US,
YANCEY BROTHERS SERVICE,,,US,
Yancey Cat Rental Store,,,US,
Yancey Cat Rental Store,,,US,
Yancey Cat Rental Store,,,US,
Yancey Cat Rental Store,,,US,
Yancey Power Systems,,,US,
Yancey Power Systems,,,US,
Yancey Rents,,,US,
YANCEY RENTS,,,US,
Ykk Ap America Inc,,,US,
ZEIGLER I-FALLS,,,US,
ZEP INC ENFORCER,,,US,
ZF ACTIVE & PASSIVE SAFET,,,US,
ZIEGLER,,,US,
ZIEGLER - SHAKOPEE COVERA,,,US,
ZIEGLER - SHAKOPEE2,,,US,
ZIEGLER ALEXANDRIA,,,US,
ZIEGLER CAT,,,US,
Ziegler Cat,,,US,
ZIEGLER INC,,,US,
ZIEGLER INC,,,US,
Ziegler Inc,,,US,
Ziegler Inc,,,US,
Ziegler Inc,,,US,
Ziegler Inc,,,US,
Ziegler Inc,,,US,
ZIEGLER-BEMIDJI,,,US,
Zschimmer & Schwarz Inc,,,US,
Zschimmer & Schwarz Inc,,,US,
